start=new Date('2023-04-10T00:00:00.000Z').valueOf();
sats=[{"BSTAR":"0.00190410000000","REV_AT_EPOCH":"11178","GP_ID":"229783207","NORAD_CAT_ID":"48149","ECCENTRICITY":"0.00011770","MEAN_MOTION_DDOT":"0.0000000000000","INCLINATION":"53.0534","PERIOD":"95.590","MEAN_ELEMENT_THEORY":"SGP4","TIME_SYSTEM":"UTC","ELEMENT_SET_NO":"999","FILE":"3884496","MEAN_MOTION_DOT":"0.00028226","RA_OF_ASC_NODE":"252.2860","EPOCH":"2023-04-09T18:10:38.419968","SEMIMAJOR_AXIS":"6925.221","LAUNCH_DATE":"2021-04-07","OBJECT_NAME":"STARLINK-2492","DECAY_DATE":null,"MEAN_MOTION":"15.06441504","TLE_LINE1":"1 48149U 21027BK  23099.75738912  .00028226  00000-0  19041-2 0  9990","TLE_LINE2":"2 48149  53.0534 252.2860 0001177  72.3153 287.7964 15.06441504111781","CLASSIFICATION_TYPE":"U","COUNTRY_CODE":"US","CENTER_NAME":"EARTH","EPHEMERIS_TYPE":"0","RCS_SIZE":"LARGE","MEAN_ANOMALY":"287.7964","OBJECT_ID":"2021-027BK","APOAPSIS":"547.901","REF_FRAME":"TEME","OBJECT_TYPE":"PAYLOAD","PERIAPSIS":"546.271","ARG_OF_PERICENTER":"72.3153","SITE":"AFETR"},{"DECAY_DATE":null,"LAUNCH_DATE":"2021-04-07","OBJECT_NAME":"STARLINK-2493","SEMIMAJOR_AXIS":"6925.250","EPOCH":"2023-04-09T16:40:24.839616","RA_OF_ASC_NODE":"252.5654","MEAN_MOTION_DOT":"0.00024812","FILE":"3884641","ELEMENT_SET_NO":"999","TIME_SYSTEM":"UTC","MEAN_ELEMENT_THEORY":"SGP4","PERIOD":"95.590","INCLINATION":"53.0546","MEAN_MOTION_DDOT":"0.0000000000000","ECCENTRICITY":"0.00013210","NORAD_CAT_ID":"48150","REV_AT_EPOCH":"11218","GP_ID":"229807959","BSTAR":"0.00167730000000","SITE":"AFETR","ARG_OF_PERICENTER":"78.6778","PERIAPSIS":"546.200","OBJECT_TYPE":"PAYLOAD","REF_FRAME":"TEME","OBJECT_ID":"2021-027BL","APOAPSIS":"548.030","MEAN_ANOMALY":"281.4359","RCS_SIZE":"LARGE","EPHEMERIS_TYPE":"0","CENTER_NAME":"EARTH","COUNTRY_CODE":"US","CLASSIFICATION_TYPE":"U","TLE_LINE2":"2 48150  53.0546 252.5654 0001321  78.6778 281.4359 15.06432264112180","TLE_LINE1":"1 48150U 21027BL  23099.69473194  .00024812  00000-0  16773-2 0  9999","MEAN_MOTION":"15.06432264"},{"TLE_LINE1":"1 48151U 21027BM  23099.69837753  .00023605  00000-0  15955-2 0  9995","MEAN_MOTION":"15.06465523","CLASSIFICATION_TYPE":"U","COUNTRY_CODE":"US","TLE_LINE2":"2 48151  53.0541 252.5461 0001047  60.7859 299.3234 15.06465523112183","CENTER_NAME":"EARTH","EPHEMERIS_TYPE":"0","RCS_SIZE":"LARGE","MEAN_ANOMALY":"299.3234","OBJECT_ID":"2021-027BM","APOAPSIS":"547.738","REF_FRAME":"TEME","ARG_OF_PERICENTER":"60.7859","OBJECT_TYPE":"PAYLOAD","PERIAPSIS":"546.288","SITE":"AFETR","BSTAR":"0.00159550000000","NORAD_CAT_ID":"48151","REV_AT_EPOCH":"11218","GP_ID":"229808208","MEAN_MOTION_DDOT":"0.0000000000000","INCLINATION":"53.0541","ECCENTRICITY":"0.00010470","MEAN_ELEMENT_THEORY":"SGP4","PERIOD":"95.588","MEAN_MOTION_DOT":"0.00023605","FILE":"3884641","TIME_SYSTEM":"UTC","ELEMENT_SET_NO":"999","EPOCH":"2023-04-09T16:45:39.818592","SEMIMAJOR_AXIS":"6925.148","RA_OF_ASC_NODE":"252.5461","DECAY_DATE":null,"OBJECT_NAME":"STARLINK-2503","LAUNCH_DATE":"2021-04-07"},{"NORAD_CAT_ID":"48276","GP_ID":"229774984","REV_AT_EPOCH":"10824","INCLINATION":"53.0506","MEAN_MOTION_DDOT":"0.0000000000000","ECCENTRICITY":"0.00014740","BSTAR":"0.00101890000000","EPOCH":"2023-04-09T09:47:02.250816","SEMIMAJOR_AXIS":"6925.220","RA_OF_ASC_NODE":"148.8544","DECAY_DATE":null,"OBJECT_NAME":"STARLINK-2567","LAUNCH_DATE":"2021-04-29","MEAN_ELEMENT_THEORY":"SGP4","PERIOD":"95.589","MEAN_MOTION_DOT":"0.00014945","FILE":"3884332","TIME_SYSTEM":"UTC","ELEMENT_SET_NO":"999","CENTER_NAME":"EARTH","EPHEMERIS_TYPE":"0","TLE_LINE1":"1 48276U 21036A   23099.40766494  .00014945  00000-0  10189-2 0  9996","MEAN_MOTION":"15.06442042","CLASSIFICATION_TYPE":"U","COUNTRY_CODE":"US","TLE_LINE2":"2 48276  53.0506 148.8544 0001474  95.5985 264.5172 15.06442042108249","ARG_OF_PERICENTER":"95.5985","OBJECT_TYPE":"PAYLOAD","PERIAPSIS":"546.064","SITE":"AFETR","RCS_SIZE":"LARGE","MEAN_ANOMALY":"264.5172","OBJECT_ID":"2021-036A","APOAPSIS":"548.105","REF_FRAME":"TEME"},{"REV_AT_EPOCH":"10878","GP_ID":"229807471","NORAD_CAT_ID":"48277","ECCENTRICITY":"0.00012660","INCLINATION":"53.0528","MEAN_MOTION_DDOT":"0.0000000000000","BSTAR":"0.00009455700000","RA_OF_ASC_NODE":"112.3553","SEMIMAJOR_AXIS":"6925.326","EPOCH":"2023-04-09T17:46:44.496192","LAUNCH_DATE":"2021-04-29","OBJECT_NAME":"STARLINK-2569","DECAY_DATE":null,"PERIOD":"95.592","MEAN_ELEMENT_THEORY":"SGP4","ELEMENT_SET_NO":"999","TIME_SYSTEM":"UTC","MEAN_MOTION_DOT":"0.00001128","FILE":"3884641","CENTER_NAME":"EARTH","EPHEMERIS_TYPE":"0","MEAN_MOTION":"15.06407264","TLE_LINE1":"1 48277U 21036B   23099.74079278  .00001128  00000-0  94557-4 0  9993","TLE_LINE2":"2 48277  53.0528 112.3553 0001266  91.6050 268.5084 15.06407264108781","COUNTRY_CODE":"US","CLASSIFICATION_TYPE":"U","OBJECT_TYPE":"PAYLOAD","PERIAPSIS":"546.315","ARG_OF_PERICENTER":"91.6050","SITE":"AFETR","MEAN_ANOMALY":"268.5084","RCS_SIZE":"LARGE","REF_FRAME":"TEME","OBJECT_ID":"2021-036B","APOAPSIS":"548.068"},{"FILE":"3884641","MEAN_MOTION_DOT":"0.00008132","TIME_SYSTEM":"UTC","ELEMENT_SET_NO":"999","MEAN_ELEMENT_THEORY":"SGP4","PERIOD":"95.592","DECAY_DATE":null,"OBJECT_NAME":"STARLINK-2543","LAUNCH_DATE":"2021-04-29","EPOCH":"2023-04-09T18:40:31.383264","SEMIMAJOR_AXIS":"6925.343","RA_OF_ASC_NODE":"127.2715","BSTAR":"0.00056413000000","INCLINATION":"53.0518","MEAN_MOTION_DDOT":"0.0000000000000","ECCENTRICITY":"0.00011820","NORAD_CAT_ID":"48278","REV_AT_EPOCH":"10857","GP_ID":"229808721","OBJECT_ID":"2021-036C","APOAPSIS":"548.027","REF_FRAME":"TEME","RCS_SIZE":"LARGE","MEAN_ANOMALY":"271.4915","SITE":"AFETR","ARG_OF_PERICENTER":"88.6209","PERIAPSIS":"546.390","OBJECT_TYPE":"PAYLOAD","COUNTRY_CODE":"US","CLASSIFICATION_TYPE":"U","TLE_LINE2":"2 48278  53.0518 127.2715 0001182  88.6209 271.4915 15.06401782108577","TLE_LINE1":"1 48278U 21036C   23099.77814101  .00008132  00000-0  56413-3 0  9999","MEAN_MOTION":"15.06401782","EPHEMERIS_TYPE":"0","CENTER_NAME":"EARTH"},{"CENTER_NAME":"EARTH","EPHEMERIS_TYPE":"0","MEAN_MOTION":"15.06417790","TLE_LINE1":"1 48279U 21036D   23099.77077191  .00013730  00000-0  93838-3 0  9992","TLE_LINE2":"2 48279  53.0521 127.2204 0001321  81.5167 278.5971 15.06417790108571","COUNTRY_CODE":"US","CLASSIFICATION_TYPE":"U","OBJECT_TYPE":"PAYLOAD","PERIAPSIS":"546.244","ARG_OF_PERICENTER":"81.5167","SITE":"AFETR","RCS_SIZE":"LARGE","MEAN_ANOMALY":"278.5971","OBJECT_ID":"2021-036D","APOAPSIS":"548.074","REF_FRAME":"TEME","GP_ID":"229808464","REV_AT_EPOCH":"10857","NORAD_CAT_ID":"48279","ECCENTRICITY":"0.00013210","INCLINATION":"53.0521","MEAN_MOTION_DDOT":"0.0000000000000","BSTAR":"0.00093838000000","RA_OF_ASC_NODE":"127.2204","EPOCH":"2023-04-09T18:29:54.693024","SEMIMAJOR_AXIS":"6925.294","LAUNCH_DATE":"2021-04-29","OBJECT_NAME":"STARLINK-2580","DECAY_DATE":null,"PERIOD":"95.591","MEAN_ELEMENT_THEORY":"SGP4","TIME_SYSTEM":"UTC","ELEMENT_SET_NO":"999","MEAN_MOTION_DOT":"0.00013730","FILE":"3884641"},{"TLE_LINE2":"2 48280  53.0526 198.4468 0001279  71.3175 288.7953 15.06412560107558","CLASSIFICATION_TYPE":"U","COUNTRY_CODE":"US","MEAN_MOTION":"15.06412560","TLE_LINE1":"1 48280U 21036E   23099.49892370  .00020534  00000-0  13929-2 0  9999","EPHEMERIS_TYPE":"0","CENTER_NAME":"EARTH","REF_FRAME":"TEME","OBJECT_ID":"2021-036E","APOAPSIS":"548.061","MEAN_ANOMALY":"288.7953","RCS_SIZE":"LARGE","SITE":"AFETR","PERIAPSIS":"546.289","OBJECT_TYPE":"PAYLOAD","ARG_OF_PERICENTER":"71.3175","BSTAR":"0.00139290000000","ECCENTRICITY":"0.00012790","MEAN_MOTION_DDOT":"0.0000000000000","INCLINATION":"53.0526","GP_ID":"229807727","REV_AT_EPOCH":"10755","NORAD_CAT_ID":"48280","ELEMENT_SET_NO":"999","TIME_SYSTEM":"UTC","FILE":"3884641","MEAN_MOTION_DOT":"0.00020534","PERIOD":"95.591","MEAN_ELEMENT_THEORY":"SGP4","LAUNCH_DATE":"2021-04-29","OBJECT_NAME":"STARLINK-2565","DECAY_DATE":null,"RA_OF_ASC_NODE":"198.4468","SEMIMAJOR_AXIS":"6925.310","EPOCH":"2023-04-09T11:58:27.007680"},{"PERIOD":"95.592","MEAN_ELEMENT_THEORY":"SGP4","ELEMENT_SET_NO":"999","TIME_SYSTEM":"UTC","MEAN_MOTION_DOT":"-0.00007952","FILE":"3884641","RA_OF_ASC_NODE":"176.6013","SEMIMAJOR_AXIS":"6925.324","EPOCH":"2023-04-09T21:50:16.027872","OBJECT_NAME":"STARLINK-2520","LAUNCH_DATE":"2021-04-29","DECAY_DATE":null,"BSTAR":"-0.00051540000000","REV_AT_EPOCH":"10789","GP_ID":"229807972","NORAD_CAT_ID":"48281","ECCENTRICITY":"0.00017210","INCLINATION":"53.0532","MEAN_MOTION_DDOT":"0.0000000000000","MEAN_ANOMALY":"263.1160","RCS_SIZE":"LARGE","REF_FRAME":"TEME","OBJECT_ID":"2021-036F","APOAPSIS":"548.381","PERIAPSIS":"545.997","OBJECT_TYPE":"PAYLOAD","ARG_OF_PERICENTER":"97.0025","SITE":"AFETR","MEAN_MOTION":"15.06407995","TLE_LINE1":"1 48281U 21036F   23099.90990773 -.00007952  00000-0 -51540-3 0  9995","TLE_LINE2":"2 48281  53.0532 176.6013 0001721  97.0025 263.1160 15.06407995107891","CLASSIFICATION_TYPE":"U","COUNTRY_CODE":"US","CENTER_NAME":"EARTH","EPHEMERIS_TYPE":"0"},{"SITE":"AFETR","PERIAPSIS":"546.368","OBJECT_TYPE":"PAYLOAD","ARG_OF_PERICENTER":"99.1262","OBJECT_ID":"2021-036G","APOAPSIS":"547.875","REF_FRAME":"TEME","RCS_SIZE":"LARGE","MEAN_ANOMALY":"260.9850","EPHEMERIS_TYPE":"0","CENTER_NAME":"EARTH","TLE_LINE2":"2 48282  53.0531 182.9847 0001088  99.1262 260.9850 15.06430002107782","COUNTRY_CODE":"US","CLASSIFICATION_TYPE":"U","MEAN_MOTION":"15.06430002","TLE_LINE1":"1 48282U 21036G   23099.60166519  .00020092  00000-0  13628-2 0  9998","OBJECT_NAME":"STARLINK-2558","LAUNCH_DATE":"2021-04-29","DECAY_DATE":null,"RA_OF_ASC_NODE":"182.9847","EPOCH":"2023-04-09T14:26:23.872416","SEMIMAJOR_AXIS":"6925.257","TIME_SYSTEM":"UTC","ELEMENT_SET_NO":"999","MEAN_MOTION_DOT":"0.00020092","FILE":"3884641","PERIOD":"95.590","MEAN_ELEMENT_THEORY":"SGP4","ECCENTRICITY":"0.00010880","MEAN_MOTION_DDOT":"0.0000000000000","INCLINATION":"53.0531","GP_ID":"229808221","REV_AT_EPOCH":"10778","NORAD_CAT_ID":"48282","BSTAR":"0.00136280000000"}];
